[{"OBJECT_NAME":"YAOGAN-36 05C","OBJECT_ID":"2023-106E","EPOCH":"2026-03-09T23:02:42.692640","MEAN_MOTION":15.17284181,"ECCENTRICITY":0.00091151,"INCLINATION":34.9946,"RA_OF_ASC_NODE":339.3602,"ARG_OF_PERICENTER":188.1733,"MEAN_ANOMALY":171.8833,"EPHEMERIS_TYPE":0,"CLASSIFICATION_TYPE":"U","NORAD_CAT_ID":57456,"ELEMENT_SET_NO":999,"REV_AT_EPOCH":14578,"BSTAR":0.00035217341,"MEAN_MOTION_DOT":7.158e-5,"MEAN_MOTION_DDOT":0},{"OBJECT_NAME":"6GSTARLAB","OBJECT_ID":"2025-276T","EPOCH":"2026-03-09T17:24:27.161568","MEAN_MOTION":15.17770534,"ECCENTRICITY":0.00054902,"INCLINATION":97.4314,"RA_OF_ASC_NODE":143.9369,"ARG_OF_PERICENTER":357.076,"MEAN_ANOMALY":3.044,"EPHEMERIS_TYPE":0,"CLASSIFICATION_TYPE":"U","NORAD_CAT_ID":66683,"ELEMENT_SET_NO":999,"REV_AT_EPOCH":1531,"BSTAR":0.00019396576,"MEAN_MOTION_DOT":3.852e-5,"MEAN_MOTION_DDOT":0}]
